IRIDIUM 135             
1 43070U 17083A   26187.26813835  .00000056  00000+0  13100-4 0  9992
2 43070  86.3982 314.0385 0002191  93.3272 266.8174 14.34218027446881
IRIDIUM 138             
1 43071U 17083B   26186.87489672  .00000091  00000+0  25314-4 0  9996
2 43071  86.3996 313.9010 0002103  89.3094 270.8343 14.34218375446812
IRIDIUM 116             
1 43072U 17083C   26187.26179516  .00000402  00000+0  13641-3 0  9999
2 43072  86.3981 314.0266 0002309 100.0565 260.0892 14.34218842446903
IRIDIUM 130             
1 43073U 17083D   26186.88123901  .00000108  00000+0  31384-4 0  9992
2 43073  86.3989 314.4628 0002114 100.0643 260.0792 14.34218302446796
IRIDIUM 151             
1 43074U 17083E   26186.85586917  .00000109  00000+0  31987-4 0  9990
2 43074  86.3984 314.2546 0002224  94.2935 265.8515 14.34218489446814
IRIDIUM 134             
1 43075U 17083F   26186.82415567  .00000271  00000+0  89733-4 0  9992
2 43075  86.3987 314.2763 0002156  95.6378 264.5064 14.34218252446777
IRIDIUM 137             
1 43076U 17083G   26186.90661038  .00000113  00000+0  33397-4 0  9998
2 43076  86.3984 314.3346 0002630  97.3876 262.7619 14.34218585446856
IRIDIUM 141             
1 43077U 17083H   26186.97003629  .00000064  00000+0  15705-4 0  9990
2 43077  86.3980 314.1378 0002174  91.8904 268.2541 14.34218049446861
IRIDIUM 153             
1 43078U 17083J   26187.20128847  .00000313  00000+0  10464-3 0  9991
2 43078  86.3965 282.5218 0002109  93.1718 266.9719 14.34218629448006
IRIDIUM 131             
1 43079U 17083K   26186.88758275  .00000047  00000+0  95991-5 0  9993
2 43079  86.3987 314.3594 0002222  93.3047 266.8403 14.34217939446780
IRIDIUM 144             
1 43249U 18030A   26187.27740049  .00000097  00000+0  27627-4 0  9994
2 43249  86.3963 282.4186 0002311  98.0298 262.1160 14.34218014432873
IRIDIUM 149             
1 43250U 18030B   26187.28374211  .00000105  00000+0  30558-4 0  9998
2 43250  86.3960 282.3825 0002260  93.4088 266.7367 14.34218606432898
IRIDIUM 157             
1 43251U 18030C   26187.30277022  .00000099  00000+0  28182-4 0  9996
2 43251  86.3965 282.4284 0002260  95.0125 265.1329 14.34218430432878
IRIDIUM 140             
1 43252U 18030D   26187.25202857  .00000140  00000+0  43082-4 0  9998
2 43252  86.3963 282.4620 0002230  95.7576 264.3874 14.34218892432929
IRIDIUM 145             
1 43253U 18030E   26187.30910656  .00000152  00000+0  47272-4 0  9996
2 43253  86.3964 282.4104 0002367 103.1219 257.0241 14.34216866432866
IRIDIUM 146             
1 43254U 18030F   26187.29008463  .00000096  00000+0  27086-4 0  9997
2 43254  86.3962 282.4304 0002320  98.0907 262.0552 14.34218600432872
IRIDIUM 148             
1 43255U 18030G   26186.76999205  .00000231  00000+0  75487-4 0  9991
2 43255  86.3962 282.6912 0002412  95.3985 264.7486 14.34219335432835
IRIDIUM 142             
1 43256U 18030H   26187.29642751  .00000299  00000+0  99583-4 0  9999
2 43256  86.3960 282.3594 0002363  98.9922 261.1542 14.34218864432876
IRIDIUM 150             
1 43257U 18030J   26187.26471439  .00000117  00000+0  34599-4 0  9995
2 43257  86.3964 282.4898 0002213  96.3956 263.7492 14.34218587432898
IRIDIUM 143             
1 43258U 18030K   26187.31545397  .00000161  00000+0  50379-4 0  9990
2 43258  86.3968 282.5619 0002285  98.0642 262.0814 14.34217821432839
IRIDIUM 161             
1 43478U 18047C   26187.23496959  .00000320  00000+0  89144-4 0  9991
2 43478  86.4472  80.5065 0002385  79.3170 280.8299 14.43283199427889
IRIDIUM 152             
1 43479U 18047D   26187.21841451  .00000266  00000+0  87921-4 0  9991
2 43479  86.3947  80.3748 0002191  81.8636 278.2809 14.34217835425219
IRIDIUM 147             
1 43480U 18047E   26187.22474339  .00000237  00000+0  77717-4 0  9991
2 43480  86.3948  80.3776 0002280  88.0469 272.0988 14.34217344425210
IRIDIUM 110             
1 43481U 18047F   26187.16132179  .00000038  00000+0  66061-5 0  9998
2 43481  86.3952  80.4966 0002285  75.8813 284.2637 14.34218004425197
IRIDIUM 162             
1 43482U 18047G   26187.22866911  .00000326  00000+0  90877-4 0  9995
2 43482  86.4471  80.4000 0002233  83.9291 276.2165 14.43281985427879
IRIDIUM 160             
1 43569U 18061A   26187.03738932  .00000009  00000+0 -37010-5 0  9997
2 43569  86.3941  48.9135 0002132  85.4118 274.7322 14.34217646416078
IRIDIUM 166             
1 43570U 18061B   26187.13252775  .00000061  00000+0  14825-4 0  9991
2 43570  86.3945  48.8242 0002216  89.0001 271.1449 14.34218131416112
IRIDIUM 158             
1 43571U 18061C   26186.12405388  .00000254  00000+0  83503-4 0  9993
2 43571  86.3944  49.2559 0002111  85.1772 274.9665 14.34219582415935
IRIDIUM 165             
1 43572U 18061D   26187.12618372  .00000117  00000+0  34717-4 0  9995
2 43572  86.3946  48.8834 0002182  89.6875 270.4570 14.34218866416100
IRIDIUM 155             
1 43573U 18061E   26187.15789519  .00000309  00000+0  10344-3 0  9993
2 43573  86.3940  48.7384 0002150  87.6799 272.4643 14.34217209416071
