OBJECT_NAME,OBJECT_ID,EPOCH,MEAN_MOTION,ECCENTRICITY,INCLINATION,RA_OF_ASC_NODE,ARG_OF_PERICENTER,MEAN_ANOMALY,EPHEMERIS_TYPE,CLASSIFICATION_TYPE,NORAD_CAT_ID,ELEMENT_SET_NO,REV_AT_EPOCH,BSTAR,MEAN_MOTION_DOT,MEAN_MOTION_DDOT
IRIDIUM 135,2017-083A,2026-07-06T06:26:07.153440,14.34218027,.0002191,86.3982,314.0385,93.3272,266.8174,0,U,43070,999,44688,.13100107E-4,.56E-6,0
IRIDIUM 138,2017-083B,2026-07-05T20:59:51.076608,14.34218375,.00021031,86.3996,313.9010,89.3094,270.8343,0,U,43071,999,44681,.25313841E-4,.91E-6,0
IRIDIUM 116,2017-083C,2026-07-06T06:16:59.101824,14.34218842,.00023094,86.3981,314.0266,100.0565,260.0892,0,U,43072,999,44690,.13640755E-3,.402E-5,0
IRIDIUM 130,2017-083D,2026-07-05T21:08:59.050464,14.34218302,.00021145,86.3989,314.4628,100.0643,260.0792,0,U,43073,999,44679,.31383787E-4,.108E-5,0
IRIDIUM 151,2017-083E,2026-07-05T20:32:27.096288,14.34218489,.00022245,86.3984,314.2546,94.2935,265.8515,0,U,43074,999,44681,.31986966E-4,.109E-5,0
IRIDIUM 134,2017-083F,2026-07-05T19:46:47.049888,14.34218252,.00021566,86.3987,314.2763,95.6378,264.5064,0,U,43075,999,44677,.89732824E-4,.271E-5,0
IRIDIUM 137,2017-083G,2026-07-05T21:45:31.136832,14.34218585,.00026309,86.3984,314.3346,97.3876,262.7619,0,U,43076,999,44685,.3339742E-4,.113E-5,0
IRIDIUM 141,2017-083H,2026-07-05T23:16:51.135456,14.34218049,.00021748,86.3980,314.1378,91.8904,268.2541,0,U,43077,999,44686,.15705389E-4,.64E-6,0
IRIDIUM 153,2017-083J,2026-07-06T04:49:51.323808,14.34218629,.00021093,86.3965,282.5218,93.1718,266.9719,0,U,43078,999,44800,.10464101E-3,.313E-5,0
IRIDIUM 131,2017-083K,2026-07-05T21:18:07.149600,14.34217939,.0002222,86.3987,314.3594,93.3047,266.8403,0,U,43079,999,44678,.959911E-5,.47E-6,0
IRIDIUM 144,2018-030A,2026-07-06T06:39:27.402336,14.34218014,.00023119,86.3963,282.4186,98.0298,262.1160,0,U,43249,999,43287,.27626582E-4,.97E-6,0
IRIDIUM 149,2018-030B,2026-07-06T06:48:35.318304,14.34218606,.00022602,86.3960,282.3825,93.4088,266.7367,0,U,43250,999,43289,.30557846E-4,.105E-5,0
IRIDIUM 157,2018-030C,2026-07-06T07:15:59.347008,14.34218430,.00022606,86.3965,282.4284,95.0125,265.1329,0,U,43251,999,43287,.28182151E-4,.99E-6,0
IRIDIUM 140,2018-030D,2026-07-06T06:02:55.268448,14.34218892,.00022301,86.3963,282.4620,95.7576,264.3874,0,U,43252,999,43292,.43081513E-4,.14E-5,0
IRIDIUM 145,2018-030E,2026-07-06T07:25:06.806784,14.34216866,.00023675,86.3964,282.4104,103.1219,257.0241,0,U,43253,999,43286,.47271591E-4,.152E-5,0
IRIDIUM 146,2018-030F,2026-07-06T06:57:43.312032,14.34218600,.00023201,86.3962,282.4304,98.0907,262.0552,0,U,43254,999,43287,.27085786E-4,.96E-6,0
IRIDIUM 148,2018-030G,2026-07-05T18:28:47.313120,14.34219335,.00024122,86.3962,282.6912,95.3985,264.7486,0,U,43255,999,43283,.7548732E-4,.231E-5,0
IRIDIUM 142,2018-030H,2026-07-06T07:06:51.336864,14.34218864,.00023638,86.3960,282.3594,98.9922,261.1542,0,U,43256,999,43287,.99583405E-4,.299E-5,0
IRIDIUM 150,2018-030J,2026-07-06T06:21:11.323296,14.34218587,.00022138,86.3964,282.4898,96.3956,263.7492,0,U,43257,999,43289,.34598625E-4,.117E-5,0
IRIDIUM 143,2018-030K,2026-07-06T07:34:15.223008,14.34217821,.00022859,86.3968,282.5619,98.0642,262.0814,0,U,43258,999,43283,.50378562E-4,.161E-5,0
IRIDIUM 161,2018-047C,2026-07-06T05:38:21.372576,14.43283199,.00023857,86.4472,80.5065,79.3170,280.8299,0,U,43478,999,42788,.89143813E-4,.32E-5,0
IRIDIUM 152,2018-047D,2026-07-06T05:14:31.013664,14.34217835,.0002191,86.3947,80.3748,81.8636,278.2809,0,U,43479,999,42521,.87921213E-4,.266E-5,0
IRIDIUM 147,2018-047E,2026-07-06T05:23:37.828896,14.34217344,.000228,86.3948,80.3776,88.0469,272.0988,0,U,43480,999,42521,.77717226E-4,.237E-5,0
IRIDIUM 110,2018-047F,2026-07-06T03:52:18.202656,14.34218004,.00022854,86.3952,80.4966,75.8813,284.2637,0,U,43481,999,42519,.6606135E-5,.38E-6,0
IRIDIUM 162,2018-047G,2026-07-06T05:29:17.011104,14.43281985,.0002233,86.4471,80.4000,83.9291,276.2165,0,U,43482,999,42787,.90876552E-4,.326E-5,0
IRIDIUM 160,2018-061A,2026-07-06T00:53:50.437248,14.34217646,.00021321,86.3941,48.9135,85.4118,274.7322,0,U,43569,999,41607,-.3701018E-5,.9E-7,0
IRIDIUM 166,2018-061B,2026-07-06T03:10:50.397600,14.34218131,.0002216,86.3945,48.8242,89.0001,271.1449,0,U,43570,999,41611,.14825218E-4,.61E-6,0
IRIDIUM 158,2018-061C,2026-07-05T02:58:38.255232,14.34219582,.0002111,86.3944,49.2559,85.1772,274.9665,0,U,43571,999,41593,.83503E-4,.254E-5,0
IRIDIUM 165,2018-061D,2026-07-06T03:01:42.273408,14.34218866,.00021825,86.3946,48.8834,89.6875,270.4570,0,U,43572,999,41610,.34717246E-4,.117E-5,0
IRIDIUM 155,2018-061E,2026-07-06T03:47:22.144416,14.34217209,.00021503,86.3940,48.7384,87.6799,272.4643,0,U,43573,999,41607,.10344433E-3,.309E-5,0
